GALAXY 35 (G-35)        
1 54741U 22170A   24042.57094907 -.00000167  00000+0  00000+0 0  9999
2 54741   0.0129 101.2610 0001473 233.5370 278.7421  1.00271230  4308
GALAXY 36 (G-36)        
1 54742U 22170B   24042.57173227 -.00000190  00000+0  00000+0 0  9999
2 54742   0.0119 105.3076 0001742 312.6408 199.9766  1.00270912  4187
METEOSAT-12 (MTG-I1)    
1 54743U 22170C   24042.30295877 -.00000013  00000+0  00000+0 0  9991
2 54743   0.3872   3.1863 0000136 246.2442   0.0608  1.00270373  4382
SHIJIAN-23 (SJ-23)      
1 55131U 23002A   24042.69661785 -.00000354  00000+0  00000+0 0  9993
2 55131   1.5039  89.4519 0000973 299.7701 132.9756  1.00095347  4102
USA 340                 
1 55138U 22144E   24038.28344046 -.00000249  00000+0  00000+0 0  9997
2 55138   3.5461  65.4741 0001919 308.6714 179.3951  1.00576761  3167
USA 342                 
1 55263U 23008A   24040.30275076  .00000138  00000+0  00000+0 0  9994
2 55263   0.0447  96.1325 0000444 172.7003   3.0287  1.00269041  3912
LDPE-3A                 
1 55264U 23008B   24042.62863132  .00000067  00000+0  00000+0 0  9999
2 55264   0.9194  88.8551 0000477 110.6909 334.6031  1.01185067  3222
ELEKTRO-L 4             
1 55506U 23016A   24042.14841449 -.00000063  00000+0  00000+0 0  9998
2 55506   0.0773 271.1014 0002510  21.8885  66.9531  1.00270362  3730
AMAZONAS NEXUS          
1 55508U 23017A   24042.16021550 -.00000287  00000+0  00000+0 0  9994
2 55508   0.0372  52.7169 0004238 298.9990 145.6354  1.00268172  3671
CHINASAT 26 (ZX 26)     
1 55686U 23023A   24042.57306434 -.00000359  00000+0  00000+0 0  9990
2 55686   0.0616  81.0668 0002179 309.9203  81.5594  1.00272163  3646
LUCH-5X (OLYMP-K 2)     
1 55841U 23031A   24042.66155846  .00000010  00000+0  00000+0 0  9994
2 55841   0.0112  90.0270 0000962 213.5411  78.3824  1.00269806  3356
GAOFEN-13 02            
1 55912U 23036A   24042.60601032 -.00000236  00000+0  00000+0 0  9996
2 55912   2.3009 303.3696 0004722 314.3701 248.2654  1.00273381  3506
SES-18                  
1 55970U 23038A   24042.24031337 -.00000106  00000+0  00000+0 0  9993
2 55970   0.0566 274.5575 0002686  19.2079 190.4083  1.00270316  3525
SES-19                  
1 55971U 23038B   24042.56759274  .00000083  00000+0  00000+0 0  9999
2 55971   0.0542 282.6364 0001600  39.3162 248.5734  1.00270253  3480
INTELSAT 40E (IS-40E)   
1 56174U 23052A   24042.14170571 -.00000178  00000+0  00000+0 0  9998
2 56174   0.0127 155.6630 0001247 161.0420 143.9840  1.00264831  3231
VIASAT-3                
1 56370U 23060A   24042.21376050 -.00000190  00000+0  00000+0 0  9997
2 56370   0.0328  97.2339 0000943 253.0854 138.4406  1.00272927  2853
ARCTURUS                
1 56371U 23060B   24042.62553591 -.00000220  00000+0  00000+0 0  9994
2 56371   0.5557  89.7999 0004606 226.8342 214.8517  0.99447175  2871
GS-1                    
1 56372U 23060C   24042.57951694 -.00000065  00000+0  00000+0 0  9992
2 56372   0.5205  88.1753 0002381 234.8678 192.3842  1.00271353  2835
BEIDOU-3 G4             
1 56564U 23066A   24042.61968271 -.00000117  00000+0  00000+0 0  9993
2 56564   2.4398 288.2218 0002702 212.7865  23.3018  1.00270189  2802
ARABSAT-7B (BADR-8)     
1 56757U 23075A   24042.52549427  .00000139  00000+0  00000+0 0  9998
2 56757   0.0745  29.8739 0005241 316.9702   9.4072  1.00273092  2543
IRNSS-1J (NVS-01)       
1 56759U 23076A   24042.55331103 -.00000343  00000+0  00000+0 0  9992
2 56759   4.3241 268.8593 0007702   9.1111 191.8517  1.00273038  2523
NUSANTARA TIGA (SATRIA) 
1 57045U 23086A   24041.59285281 -.00000239  00000+0  00000+0 0  9994
2 57045   0.0367 294.9882 0006096  21.2076 183.3604  1.00269696  1162
H2SAT (HEINRICH HERTZ)  
1 57213U 23093A   24042.30313282 -.00000005  00000+0  00000+0 0  9993
2 57213   0.0267 121.0444 0000770   3.9912 125.4532  1.00269630  2325
SYRACUSE 4B             
1 57214U 23093B   24042.37336014 -.00000059  00000+0  00000+0 0  9998
2 57214   0.0187 120.1996 0000477 250.3391 258.3289  1.00269626   926
JUPITER 3 (ECHOSTAR 24) 
1 57479U 23108A   24041.87428648 -.00000154  00000+0  00000+0 0  9993
2 57479   0.0159  91.1908 0001342 221.9867  46.7811  1.00271956  2057
GALAXY 37 (G-37)        
1 57493U 23112A   24042.57551601  .00000043  00000+0  00000+0 0  9994
2 57493   0.0286 327.3673 0001965   0.9420 252.9804  1.00271858  1950
LUDI TANCE-4 01A        
1 57624U 23120A   24042.46403778 -.00000188  00000+0  00000+0 0  9999
2 57624  15.8904 214.7368 0003003 121.2797  61.5373  1.00274731  1954
TJS-10                  
1 58204U 23169A   24042.67424235 -.00000001  00000+0  00000+0 0  9995
2 58204   0.3215  88.9633 0006357 256.7453 211.4887  1.00272950  1088
CHINASAT 6E (ZX 6E)     
1 58253U 23172A   24042.64539935 -.00000367  00000+0  00000+0 0  9999
2 58253   0.0545 256.1867 0000701 165.9318  66.9201  1.00273019  1070
YAOGAN-41               
1 58582U 23197A   24042.57128082 -.00000365  00000+0  00000+0 0  9998
2 58582   4.8733 307.7175 0014373 165.2085 357.1232  1.00275124   735
